[{"OBJECT_NAME":"STARLINK-34344","OBJECT_ID":"2025-112P","EPOCH":"2026-03-09T16:19:10.168320","MEAN_MOTION":15.05656993,"ECCENTRICITY":0.0001439,"INCLINATION":97.6036,"RA_OF_ASC_NODE":121.4644,"ARG_OF_PERICENTER":102.9545,"MEAN_ANOMALY":257.1842,"EPHEMERIS_TYPE":0,"CLASSIFICATION_TYPE":"U","NORAD_CAT_ID":64159,"ELEMENT_SET_NO":999,"REV_AT_EPOCH":4330,"BSTAR":0.00040782382,"MEAN_MOTION_DOT":5.83e-5,"MEAN_MOTION_DDOT":0},{"OBJECT_NAME":"CZ-6A DEB","OBJECT_ID":"2022-151EL","EPOCH":"2026-03-09T12:09:26.951616","MEAN_MOTION":14.86893831,"ECCENTRICITY":0.00944101,"INCLINATION":98.6325,"RA_OF_ASC_NODE":168.3306,"ARG_OF_PERICENTER":70.5159,"MEAN_ANOMALY":290.6224,"EPHEMERIS_TYPE":0,"CLASSIFICATION_TYPE":"U","NORAD_CAT_ID":54412,"ELEMENT_SET_NO":999,"REV_AT_EPOCH":17774,"BSTAR":0.0014840705,"MEAN_MOTION_DOT":0.00014338,"MEAN_MOTION_DDOT":0}]
